#aV2009  3 25  0  0   .00000000      96 DD+AD WGS84 FIT  NGA
## 1524 259200.00000000   900.00000000 54915  .0000000000000
+   31     2  3  4  5  6  7  8  9 10 11 12 13 14 15 16 17 18
+         19 20 21 22 23 24 25 26 27 28 29 30 31 32  0  0  0
+          0  0  0  0  0  0  0  0  0  0  0  0  0  0  0  0  0
+          0  0  0  0  0  0  0  0  0  0  0  0  0  0  0  0  0
+          0  0  0  0  0  0  0  0  0  0  0  0  0  0  0  0  0
++         0  0  0  0  0  0  0  0  0  0  0  0  0  0  0  0  0
++         0  0  0  0  0  0  0  0  0  0  0  0  0  0  0  0  0
++         0  0  0  0  0  0  0  0  0  0  0  0  0  0  0  0  0
++         0  0  0  0  0  0  0  0  0  0  0  0  0  0  0  0  0
++         0  0  0  0  0  0  0  0  0  0  0  0  0  0  0  0  0
%c cc cc ccc ccc cccc cccc cccc cccc ccccc ccccc ccccc ccccc
%c cc cc ccc ccc cccc cccc cccc cccc ccccc ccccc ccccc ccccc
%f  0.0000000  0.000000000  0.00000000000  0.000000000000000
%f  0.0000000  0.000000000  0.00000000000  0.000000000000000
%i    0    0    0    0      0      0      0      0         0
%i    0    0    0    0      0      0      0      0         0
/*      NGA, ST. LOUIS,MO.                                  
/*   EPHEMERIS COMPUTED FROM  3 DAYS OF DATA                
/* CCCCCCCCCCCCCCCCCCCCCCCCCCCCCCCCCCCCCCCCCCCCCCCCCCCCCCCCC
/* CCCCCCCCCCCCCCCCCCCCCCCCCCCCCCCCCCCCCCCCCCCCCCCCCCCCCCCCC
*  2009  3 25 23  0   .00000000                                                 
P  2  12236.106005  23001.333992   6054.720393    154.237847                    
V  2  -7095.352633  -4326.010329  29815.053886      -.006146                    
P  3 -12860.440217 -12410.553748 -20047.680824    370.527775                    
V  3  23885.660621  -6885.546825 -10874.425377       .051653                    
P  4    596.277309  20688.654606  16306.729196    -26.431374                    
V  4 -14634.400399 -15477.615188  20375.512117      -.146036                    
P  5  16188.596088  -1678.805438  20669.481707    -15.851999                    
V  5  -7246.400975  26040.344857   7801.410798      -.094232                    
P  6  -7277.849525 -14434.529424 -20889.097644     49.987973                    
V  6  26574.149597  -5160.656898  -5599.809384       .182863                    
P  7 -15484.141611   3852.902514 -21268.560909     21.264408                    
V  7 -15763.239310 -21836.962632   7418.239088      -.004972                    
P  8  -6116.305588  15415.902947 -20669.225535   -195.766909                    
V  8 -15288.088294 -21286.861551 -11861.751732      -.013266                    
P  9  20106.957491  12762.765857  11215.091952     47.345759                    
V  9   7904.524682  13133.344229 -27443.594472       .020442                    
P 10   6009.998901  18132.738277 -18468.091699    -13.268297                    
V 10 -11132.119113  20484.023151  16970.420192      -.006086                    
P 11 -22895.868332  -8341.561597  10760.983224      3.454880                    
V 11  -7918.325794 -12252.895071 -25507.018160      -.013084                    
P 12  15525.506729   1601.733193  21552.231924   -302.065602                    
V 12 -10262.530770  25181.056972   5652.088680       .044285                    
P 13 -25124.481349   5850.439482  -6429.421347    292.624765                    
V 13  -8063.856708  -1093.737997  31129.040954       .011565                    
P 14  11006.684125 -14005.115653  19781.653719   -135.592949                    
V 14  24811.909151  -1216.841243 -14860.653520       .056157                    
P 15  20320.864520   7986.071977 -15137.465920   -273.417023                    
V 15 -18794.616787   4671.954550 -22669.748990      -.046520                    
P 16  -1034.742119 -22069.040211 -14507.851926     64.720124                    
V 16   9568.164975 -16101.087713  23935.312029      -.030358                    
P 17 -12916.684518  14250.461593  18295.808785     51.578403                    
V 17 -23222.161400    828.708929 -17282.903256       .014349                    
P 18  16353.199583 -17953.541104 -10097.443298    -71.478152                    
V 18  -2546.362328  13458.582423 -27838.296657       .034533                    
P 19 -21880.457800  -8000.874320 -12908.240429     29.849647                    
V 19  16282.040169  -3006.618619 -25370.716390      -.008642                    
P 20 -16591.060054   1296.119849  20561.777301     87.150824                    
V 20   8864.219483 -24971.732797   8717.358927      -.010628                    
P 21  13668.021415  -7797.636062 -21178.657946     22.620529                    
V 21  16195.623801  22269.979320   1604.390521      -.019406                    
P 22  11432.208232 -23930.984141   -279.336362    202.855161                    
V 22   2959.846567   1979.949506 -31337.446757      -.008243                    
P 23 -26281.963647   -146.931288   4694.758775    388.759569                    
V 23   5671.851686  -2903.861266  31062.081365       .004199                    
P 24  19063.608015   6413.841016 -17077.889521    176.087090                    
V 24  10650.203927  19449.265513  19303.503334       .031249                    
P 25 -18984.288224  -2467.382546 -17972.645033    322.037070                    
V 25 -14709.957063 -18516.025122  17926.761667       .222719                    
P 26  20105.741952   8946.793905 -15812.104932     53.236699                    
V 26 -18715.685568   2048.692608 -22925.790843       .022179                    
P 27  13922.459530  21823.569001  -5193.141545     35.332469                    
V 27  -6715.594881  -4066.849128 -31153.227670       .032963                    
P 28 -12365.184910  23150.684327  -2262.097528    -23.769870                    
V 28  -1261.732814  -4341.713310 -31904.555989      -.001427                    
P 29  25535.856865  -5626.617699  -4443.427156      2.538000                    
V 29   6028.250599   2243.865980  31097.681376       .040942                    
P 30  16918.490432 -11485.417791  16541.979254    134.807436                    
V 30  -5632.239831  21123.772770  20075.670806       .025668                    
P 31  -3111.060308 -21499.020845  15399.348401    -55.820383                    
V 31  13027.254995  14225.295714  22939.804481      -.011728                    
P 32 -12789.239825  -8544.151521  22063.938997    282.601079                    
V 32  12672.615785 -23884.712801  -1699.320093      -.041161                    
EOF
